NAME,DBA,STADDR,STADDR2,CITY,STATE,ZIP
"A Plus Title Loans, Inc.",,8983  Potter Road,,Des Plaines,IL,60016
"A-All Financial Services, Inc.",,"320 West Illinois Route 173, Suite B",,Antioch,IL,60002
"A-All Financial Services, Inc.",,1251D North Skokie Highway,,Lake Bluff,IL,60044
"A-All Payday Loans, Inc.",,8261 West Belmont Avenue,,River Grove,IL,60171
"AAA Cash Advance, Inc.",,19 Pullen Road,,Metropolis,IL,62960
"Advance America, Cash Advance Centers of IL","D/b/a Kickstand Lending, D/b/a Advance America","750 Shipyard Drive, Suite 200",,Wilmington,DE,19801
"Advance America, Cash Advance Centers of IL, Inc.",D/b/a Advance America,1552 North Aurora Road,Suite 100,Naperville,IL,60563
"Advance America, Cash Advance Centers of IL, Inc.",D/b/a Advance America,729 Tenney Street,,Kewanee,IL,61443
"Advance America, Cash Advance Centers of IL, Inc.",D/b/a Advance America,113 North Main Street,,Canton,IL,61520
"Advance America, Cash Advance Centers of IL, Inc.",D/b/a Advance America,2438 Sycamore Road,,DeKalb,IL,60115
"Advance America, Cash Advance Centers of IL, Inc.",D/b/a Advance America,150 South Kennedy Drive - Route 25,Suite 5A,Carpentersville,IL,60110
"Advance America, Cash Advance Centers of IL, Inc.",D/b/a Advance America,1746 South State Street,,Belvidere,IL,61008
"Advance America, Cash Advance Centers of IL, Inc.",D/b/a Advance America,5924 North Second Street,,Loves Park,IL,61111
"Advance America, Cash Advance Centers of IL, Inc.",D/b/a Advance America,1239 Sandy Hollow Road,,Rockford,IL,61109
"Advance America, Cash Advance Centers of IL, Inc.",D/b/a Advance America,617 Avenue Of The Cities,,East Moline,IL,61244
"Advance America, Cash Advance Centers of IL, Inc.",D/b/a Advance America,3850 Blackhawk Road,Suite H3,Rock Island,IL,61201
"Advance America, Cash Advance Centers of IL, Inc.",D/b/a Advance America,"1500 South Lake Street, Unit C",,Mundelein,IL,60060
"Advance America, Cash Advance Centers of IL, Inc.",D/b/a Advance America,901 West Morton Avenue,Suite 21,Jacksonville,IL,62650
"Advance America, Cash Advance Centers of IL, Inc.",D/b/a Advance America,108 East Norris Drive,,Ottawa,IL,61350
"Advance America, Cash Advance Centers of IL, Inc.",D/b/a Advance America,2367 Bloomington Street,Unit G,Streator,IL,61364
"Advance America, Cash Advance Centers of IL, Inc.",D/b/a Advance America,750 North Henderson,,Galesburg,IL,61401
"Advance America, Cash Advance Centers of IL, Inc.",D/b/a Advance America,1613 Douglas,,Montgomery,IL,60538
"Advance America, Cash Advance Centers of IL, Inc.",D/b/a Advance America,142 Junction Drive,,Glen Carbon,IL,62034
"Advance America, Cash Advance Centers of IL, Inc.",D/b/a Advance America,521 West Belt Line Road,,Collinsville,IL,62234
"Advance America, Cash Advance Centers of IL, Inc.",D/b/a Advance America,3125 North University,,Peoria,IL,61604
"Advance America, Cash Advance Centers of IL, Inc.",D/b/a Advance America,1627 Broadway Street,,Pekin,IL,61554
"Advance America, Cash Advance Centers of IL, Inc.",D/b/a Advance America,2420 East Washington Road,,East Peoria,IL,61611
"Advance America, Cash Advance Centers of IL, Inc.",D/b/a Advance America,2516 South MacArthur Boulevard,,Springfield,IL,62704
"Advance America, Cash Advance Centers of IL, Inc.",D/b/a Advance America,114 North Vine,Suite G,Urbana,IL,61802
"Advance America, Cash Advance Centers of IL, Inc.",D/b/a Advance America,"1311 North Galena Avenue,  Suite 150",,Dixon,IL,61021
"Advance America, Cash Advance Centers of IL, Inc.",D/b/a Advance America,4311 East Lincolnway,Suite B,Sterling,IL,61081
"Advance America, Cash Advance Centers of IL, Inc.",D/b/a Advance America,3257 Court Street,,Pekin,IL,61554
"Advance America, Cash Advance Centers of IL, Inc.",D/b/a Advance America,14 West Edwardsville Road,,Wood River,IL,62095
"Advance America, Cash Advance Centers of IL, Inc.",D/b/a Advance America,1770 South Rosenstiel Drive,,Freeport,IL,61032
"Advance America, Cash Advance Centers of IL, Inc.",D/b/a Advance America,482 North Weber Road,,Romeoville,IL,60446
"Advance America, Cash Advance Centers of IL, Inc.",D/b/a Advance America,446 North Mannheim Road,,Hillside,IL,60162
"Advance America, Cash Advance Centers of IL, Inc.",D/b/a Advance America,4142 West 167th Street,Suite 6,Oak Forest,IL,60452
"Advance America, Cash Advance Centers of IL, Inc.",D/b/a Advance America,2828 South 17th Street,Unit B,Broadview,IL,60155
"Advance America, Cash Advance Centers of IL, Inc.",D/b/a Advance America,5757 Godfrey Road,,Godfrey,IL,62035
"Advance America, Cash Advance Centers of IL, Inc.",D/b/a Advance America,106 Village Square Shopping Center,Suite 6,Bradley,IL,60915
"Advance America, Cash Advance Centers of IL, Inc.",D/b/a Advance America,12200 South Western Avenue,Unit 110,Blue Island,IL,60406
"Advance America, Cash Advance Centers of IL, Inc.",D/b/a Advance America,2525 Green Mount Commons Drive,Suite 110,Belleville,IL,62221
"Advance America, Cash Advance Centers of IL, Inc.",D/b/a Advance America,17655 South Torrence Avenue,,Lansing,IL,60438
"Advance America, Cash Advance Centers of IL, Inc.",D/b/a Advance America,3100 Kirchoff Road,,Rolling Meadows,IL,60008
"America's Financial Choice, Inc.",,6 North Austin Avenue,,Oak Park,IL,60302
"America's Financial Choice, Inc.",,3555 West Irving Park Road,,Chicago,IL,60618
"America's Financial Choice, Inc.",,10302 South Halsted Street,,Chicago,IL,60643
"America's Financial Choice, Inc.",,4016-1/2 North Cicero Avenue,,Chicago,IL,60641
"America's Financial Choice, Inc.",,570 West Roosevelt Road,,Chicago,IL,60607
"America's Financial Choice, Inc.",,667 River Oaks Drive,,Calumet City,IL,60409
"America's Financial Choice, Inc.",,1107 Sibley Boulevard,,Dolton,IL,60419
"America's Financial Choice, Inc.",,"2622 Broadway Street, Suite A",,Mt. Vernon,IL,62864
"America's Financial Choice, Inc.",,1701 North Market Street,Suite E,Sparta,IL,62286
"America's Financial Choice, Inc.",,1665 Wabash Avenue,,Jerome,IL,62704
"America's Financial Choice, Inc.",,"651 Carlyle Avenue, Suite G",,Belleville,IL,62221
"America's Financial Choice, Inc.",,821 Bloomington Road,,Champaign,IL,61820
"America's Financial Choice, Inc.",,799 South Washington Street,,DuQuoin,IL,62832
"America's Financial Choice, Inc.",,1537 Johnson Road,,Granite City,IL,62040
"America's Financial Choice, Inc.",,221 Lake Land Boulevard,,Mattoon,IL,61938
"America's Financial Choice, Inc.",,1214 East Main Street,,Olney,IL,62450
"America's Financial Choice, Inc.",,315 East Broadway,,Centralia,IL,62801
"America's Financial Choice, Inc.",,1043 East Eldorado Street,,Decatur,IL,62521
"America's Financial Choice, Inc.",,101 South Henrietta Avenue,,Effingham,IL,62401
"America's Financial Choice, Inc.",,7 Litchfield Plaza,,Litchfield,IL,62056
"Americash Loans, LLC",D/b/a americashloans.net,"880 Lee Street, Suite 300",,Des Plaines,IL,60016
"Americash Loans, LLC",,6008 West North Avenue,,Chicago,IL,60639
"Americash Loans, LLC",,1488 Miner Street,,Des Plaines,IL,60016
"Americash Loans, LLC",,4815 West Irving Park Road,,Chicago,IL,60641
"Americash Loans, LLC",,1801 West Dempster,,Evanston,IL,60201
"Americash Loans, LLC",,1590 North Rand Road,,Palatine,IL,60067
"Americash Loans, LLC",,2509 West Schaumburg,,Schaumburg,IL,60193
"Americash Loans, LLC",,2107 Sheridan Road,,Zion,IL,60099
"Americash Loans, LLC",,924 North Green Bay Road,,Waukegan,IL,60085
"Americash Loans, LLC",,5310 North Broadway,,Chicago,IL,60640
"Americash Loans, LLC",,212 South Clark Street,,Chicago,IL,60604
"Americash Loans, LLC",,1798 South Arlington Heights Road,,Arlington Heights,IL,60005
"Americash Loans, LLC",,1431 West Montrose Avenue,,Chicago,IL,60613
"Americash Loans, LLC",,4213 West Elm,,McHenry,IL,60050
"Americash Loans, LLC",,103 North Wells Street,,Chicago,IL,60606
"Americash Loans, LLC",,105 West Madison Street,,Chicago,IL,60602
"Americash Loans, LLC",,1612 West 59th Street,,Chicago,IL,60636
"Americash Loans, LLC",,719 North State Street,,Chicago,IL,60610
"Americash Loans, LLC",,7460 South Cicero Avenue,,Bedford Park,IL,60629
"Americash Loans, LLC",,14647 South Cicero Avenue,,Midlothian,IL,60445
"Americash Loans, LLC",,1117 South First Avenue,,Maywood,IL,60153
"Americash Loans, LLC",,3200 West 159th Street,,Markham,IL,60426
"Americash Loans, LLC",,1513 East 53rd Street,,Chicago,IL,60615
"Americash Loans, LLC",,179 West Van Buren,,Chicago,IL,60605
"Americash Loans, LLC",,205 Army Trail Road,,Glendale Heights,IL,60139
"Americash Loans, LLC",,17340 Torrence Avenue,,Lansing,IL,60438
"Americash Loans, LLC",,1726 Jefferson,,Joliet,IL,60435
"Americash Loans, LLC",,840 North Kinzie Avenue,,Bradley,IL,60915
"Americash Loans, LLC",,848 North Route 59,,Aurora,IL,60504
"Americash Loans, LLC",,555 Torrence Avenue,,Calumet City,IL,60409
"Americash Loans, LLC",,2909 North Water,,Decatur,IL,62526
"Americash Loans, LLC",,4315 East State Street,,Rockford,IL,61108
"Americash Loans, LLC",,2402 East Oakland Avenue,,Bloomington,IL,61701
"Americash Loans, LLC",,4405 North Sterling Avenue,,Peoria,IL,61615
"Americash Loans, LLC",,908 West Town Center Boulevard,,Champaign,IL,61822
"Americash Loans, LLC",,1150 North 5th,,Springfield,IL,62702
"Americash Loans, LLC",,103 West Division,,Chicago,IL,60610
"Americash Loans, LLC",D/b/a First Rate Financial,1507 East 87th Street,,Chicago,IL,60619
"Americash Loans, LLC",D/b/a First Rate Financial,9500 South Halsted,,Chicago,IL,60628
"Americash Loans, LLC",D/b/a First Rate Financial,180 South Bolingbrook Road,,Bolingbrook,IL,60440
"Buckeye Check Cashing of Illinios, LLC",D/b/a 1st Loans Financial,1916 East 95th Street,,Chicago,IL,60617
"Buckeye Check Cashing of Illinois, LLC",D/b/a 1st Loans Financial,4714 West Lincoln Highway,,Matteson,IL,60443
"Buckeye Check Cashing of Illinois, LLC",D/b/a 1st Loans Financial,4705 North Pulaski Road,,Chicago,IL,60630
"Buckeye Check Cashing of Illinois, LLC",D/b/a 1st Loans Financial,1205 East Sibley Boulevard,,Dolton,IL,60419
"Buckeye Check Cashing of Illinois, LLC",D/b/a 1st Loans Financial,4853-A North Broadway,,Chicago,IL,60640
"Buckeye Check Cashing of Illinois, LLC",D/b/a 1st Loans Financial,1155 North Farnsworth Avenue,,Aurora,IL,60505
"Buckeye Check Cashing of Illinois, LLC",D/b/a 1st Loans Financial,"12601 South Western Avenue, Suite F",,Blue Island,IL,60406
"Buckeye Check Cashing of Illinois, LLC",D/b/a 1st Loans Financial,6421 West North Avenue,,Oak Park,IL,60302
"Buckeye Check Cashing of Illinois, LLC",D/b/a 1st Loans Financial,1113 West Chicago Avenue,,Chicago,IL,60622
"Buckeye Check Cashing of Illinois, LLC",D/b/a 1st Loans Financial,"1238 North Ashland Avenue, Suite A",,Chicago,IL,60622
"Buckeye Check Cashing of Illinois, LLC",D/b/a 1st Loans Financial,3557 Dempster Avenue,,Skokie,IL,60076
"Buckeye Check Cashing of Illinois, LLC",D/b/a 1st Loans Financial,900 South Roselle Road,,Schaumburg,IL,60193
"Cascade Capital, LLC",,"101 2nd Street, Suite 100",,Petaluma,CA,94952
"Cash Central of Illinois, LLC",D/b/a Cash Central,84 East 2400 North,,North Logan,UT,84341
"Cash Loans Today, Inc.",,11949 South Pulaski Road,,Alsip,IL,60803
Cashcity Loans Corp.,,10334 South Harlem Avenue,,Palos Hills,IL,60465
"CCO Illinois, Inc.",,2474 North University Avenue,,Provo,UT,84604
"Check Into Cash of Illinois, LLC",D/b/a Check Into Cash,3437-39 North Main Street,,Rockford,IL,61103
"Check Into Cash of Illinois, LLC",D/b/a Check Into Cash,North Prospect Plaza,1507 N. Prospect Avenue,Champaign,IL,61820
"Check Into Cash of Illinois, LLC",D/b/a Check Into Cash,2157 West Jefferson,,Joliet,IL,60435
"Check Into Cash of Illinois, LLC",D/b/a Check Into Cash,1099 Beltline Road,Suite H,Collinsville,IL,62234
"Check Into Cash of Illinois, LLC",D/b/a Check Into Cash,3024 South Belvidere Road,,Waukegan,IL,60085
"Check Into Cash of Illinois, LLC",D/b/a Check Into Cash,3224 Nameoki Road,,Granite City,IL,62040
"Check Into Cash of Illinois, LLC",D/b/a Check Into Cash,104 North Barrington Road,,Streamwood,IL,60107
"Check Into Cash of Illinois, LLC",D/b/a Check Into Cash,781 West Golf Road,,Des Plaines,IL,60016
"Check Into Cash of Illinois, LLC",D/b/a Check Into Cash,3023 North Pulaski Road,,Chicago,IL,60641
"Check Into Cash of Illinois, LLC",D/b/a Check Into Cash,4103 Lincoln Highway,,Matteson,IL,60443
"Check Into Cash of Illinois, LLC",D/b/a Check Into Cash,6816 West North Avenue,,Chicago,IL,60707
"Check Into Cash of Illinois, LLC",D/b/a Check Into Cash,911 West Main Street,,Carbondale,IL,62901
"Check Into Cash of Illinois, LLC",D/b/a Check Into Cash,8547 South Cicero Avenue,,Chicago,IL,60652
"Check Into Cash of Illinois, LLC",D/b/a Check Into Cash,"2378 172nd Street, Suite 6",,Lansing,IL,60438
"Check Into Cash of Illinois, LLC",D/b/a Check Into Cash,1331 East Jackson Street,,Macomb,IL,61455
"Check Into Cash of Illinois, LLC",D/b/a Check Into Cash,1526 Springfield Road,,Taylorville,IL,62568
"Check Into Cash of Illinois, LLC",D/b/a Check Into Cash,702 East Rollins Road,,Round Lake Beach,IL,60073
"Check Into Cash of Illinois, LLC",D/b/a  Check Into Cash,"1171 Bloomingdale Road, Space D",,Glendale Heights,IL,60137
"Check Into Cash of Illinois, LLC",D/b/a Check Into Cash,2303 East Washington,Suite 100,Bloomington,IL,61704
"Check Into Cash of Illinois, LLC",D/b/a Check Into Cash,4274 North Prospect Street,,Decatur,IL,62523
"Check Into Cash of Illinois, LLC",D/b/a Check Into Cash,"1200 West Main Street,  Suite 7",,Peoria,IL,61606
"Check Into Cash of Illinois, LLC",D/b/a Check Into Cash,2529 West War Memorial Drive,,Peoria,IL,61615
"Check Into Cash of Illinois, LLC",D/b/a Check Into Cash,3923 41st Avenue Drive,,Moline,IL,61265
"Check Into Cash of Illinois, LLC",D/b/a Check Into Cash,1754 Wabash Avenue,,Springfield,IL,62704
"Check Into Cash of Illinois, LLC",D/b/a Check Into Cash,9 Meadowview Shopping Center,,Kankakee,IL,60901
"Check Into Cash of Illinois, LLC",D/b/a Check Into Cash,"551 Dundee Avenue, Suite 6A",,East Dundee,IL,60118
"Check Into Cash of Illinois, LLC",D/b/a Check Into Cash,9165 West Cermak Road,,North Riverside,IL,60546
"Check Into Cash of Illinois, LLC",D/b/a Check Into Cash,"603 Freeport Road, Suite C",,Sterling,IL,61081
"Check Into Cash of Illinois, LLC",D/b/a Check Into Cash,5851 South Kedzie Avenue,,Chicago,IL,60629
"Check Into Cash of Illinois, LLC",D/b/a Check Into Cash,1637 South Cicero Avenue,,Cicero,IL,60804
"Check Into Cash of Illinois, LLC",D/b/a Check Into Cash,"2350 Sycamore Road, Suite N",,De Kalb,IL,60115
"Check Into Cash of Illinois, LLC",D/b/a Check Into Cash,1002 Shooting Park,,Peru,IL,61354
"Check Into Cash of Illinois, LLC",D/b/a Check Into Cash,"925 North Lake Street, Suite A",,Aurora,IL,60506
"CNU of Illinois, LLC",D/b/a CashNetUSA,200 West Jackson Boulevard,Suite 2400,Chicago,IL,60606
"Collinsville Quick Cash, Inc.",,1710 Vandalia Street,,Collinsville,IL,62234
Consumers Payday Company,,"650 Colonial Lane, #1",,Des Plaines,IL,60016
Cook Fast Cash,,107 North Main Street,,Creve Coeur,IL,61610
Cook Fast Cash,,1910 North East Jefferson Avenue,,Peoria,IL,61603
Cook Fast Cash,,121 South 14th Street,,Pekin,IL,61554
"Cottonwood Financial Illinois, LLC",D/b/a The Cash Store,503 Riverstone Parkway,Suite 701,Kankakee,IL,60901
"Cottonwood Financial Illinois, LLC",D/b/a The Cash Store,921 41st Avenue Drive,,Moline,IL,61265
"Cottonwood Financial Illinois, LLC",D/b/a The Cash Store,912 Giacone Drive,,Benton,IL,62812
"Cottonwood Financial Illinois, LLC",D/b/a The Cash Store,2410A South Alpine Road,,Rockford,IL,61108
"Cottonwood Financial Illinois, LLC",D/b/a The Cash Store,142 Dettro Drive,,Mattoon,IL,61938
"Cottonwood Financial Illinois, LLC",D/b/a The Cash Store,3213 East Lincoln Way,,Sterling,IL,61081
"Cottonwood Financial Illinois, LLC",D/b/a The Cash Store,103 North Baldridge Lane,Suite 101,Salem,IL,62881
"Cottonwood Financial Illinois, LLC",D/b/a The Cash Store,1872 South West Avenue,,Freeport,IL,61032
"Cottonwood Financial Illinois, LLC",D/b/a The Cash Store,"301 West Lincoln Avenue, Unit B",,Charleston,IL,61920
"Cottonwood Financial Illinois, LLC",D/b/a The Cash Store,"1203 Ferdon Street, Suite 2",,Litchfield,IL,62056
"Cottonwood Financial Illinois, LLC",D/b/a The Cash Store,1015 West Broadway,,Centralia,IL,62801
"Cottonwood Financial Illinois, LLC",D/b/a The Cash Store,3300 West Broadway,Suite E,Mount Vernon,IL,62864
"Cottonwood Financial Illinois, LLC",D/b/a The Cash Store,1520 Sycamore Road,,DeKalb,IL,60115
"Cottonwood Financial Illinois, LLC",D/b/a The Cash Store,"1120 North Carbon Street, Suite 60",,Marion,IL,62959
"Cottonwood Financial Illinois, LLC",D/b/a The Cash Store,6501 North 2nd Street,,Loves Park,IL,61111
"Cottonwood Financial Illinois, LLC",D/b/a The Cash Store,218 North Western Avenue,,Peoria,IL,61604
"Cottonwood Financial Illinois, LLC",D/b/a The Cash Store,401 East Walnut Street,,Carbondale,IL,62901
"Cottonwood Financial Illinois, LLC",D/b/a The Cash Store,"2371 Bloomington Street, Suite E",,Streator,IL,61364
"Cottonwood Financial Illinois, LLC",D/b/a The Cash Store,"4325 North Sheridan Road, Suite #3",,Peoria,IL,61614
"Cottonwood Financial Illinois, LLC",D/b/a The Cash Store,3701 North Sterling Avenue,,Peoria,IL,61615
"Cottonwood Financial Illinois, LLC",D/b/a The Cash Store,357 West Stevenson Road,,Ottawa,IL,61350
"Cottonwood Financial Illinois, LLC",D/b/a The Cash Store,281 East US Route 6,Unit 110,Morris,IL,60450
"Cottonwood Financial Illinois, LLC",D/b/a The Cash Store,87 Clocktower Plaza,,Elgin,IL,60120
"Cottonwood Financial Illinois, LLC",D/b/a The Cash Store,"300 South McLean Boulevard, Suite N",,Elgin,IL,60123
"Cottonwood Financial Illinois, LLC",D/b/a The Cash Store,4221 East State Street,,Rockford,IL,61108
"Cottonwood Financial Illinois, LLC",D/b/a The Cash Store,"1304 Thelma Keller Avenue, Suite 106",,Effingham,IL,62401
"Cottonwood Financial Illinois, LLC",D/b/a The Cash Store,1120 East State Street,,Rockford,IL,61104
"Cottonwood Financial Illinois, LLC",D/b/a The Cash Store,"1828 Broadway Street, Suite E",,Quincy,IL,62301
"Cottonwood Financial Illinois, LLC",D/b/a The Cash Store,"1005 North West Street, Suite B",,Olney,IL,62450
"Cottonwood Financial Illinois, LLC",D/b/a The Cash Store,266 East Roosevelt Road,,Lombard,IL,60148
"Cottonwood Financial Illinois, LLC",D/b/a The Cash Store,"153 East Pershing Road, Suite B",,Decatur,IL,62526
"Cottonwood Financial Illinois, LLC",D/b/a The Cash Store,224 North Galena Avenue,,Dixon,IL,61021
"Cottonwood Financial Illinois, LLC",D/b/a The Cash Store,"3134 Eleventh Street, Suite #A2",,Rockford,IL,61109
"Cottonwood Financial Illinois, LLC",D/b/a The Cash Store,"1516 North Henderson Street, Suite B",,Galesburg,IL,61401
"Cottonwood Financial Illinois, LLC",D/b/a The Cash Store,12547 State Route 143,Suite B,Highland,IL,62249
"Cottonwood Financial Illinois, LLC",D/b/a The Cash Store,2512 North Dirksen Parkway,,Springfield,IL,62702
"Cottonwood Financial Illinois, LLC",D/b/a The Cash Store,"4705 East Maryland Avenue, Suite 18",,Decatur,IL,62521
"Cottonwood Financial Illinois, LLC",D/b/a The Cash Store,"1479 North State Street, Unit #1",,Belvidere,IL,61008
"Cottonwood Financial Illinois, LLC",D/b/a The Cash Store,148 Maymart Drive,Suite C,Rochelle,IL,61068
"Cottonwood Financial Illinois, LLC",D/b/a The Cash Store,3324 Court Street,,Pekin,IL,61554
"Cottonwood Financial Illinois, LLC",D/b/a The Cash Store,1020 West Camp Street,,East Peoria,IL,61611
"Cottonwood Financial Illinois, LLC",D/b/a The Cash Store,"1701 North Larkin Street, Suite 901",,Crest Hill,IL,60435
"Cottonwood Financial Illinois, LLC",D/b/a The Cash Store,745 West Howard Street,,Pontiac,IL,61764
"Cottonwood Financial Illinois, LLC",D/b/a The Cash Store,208 Southtowne Shopping Center,,DuQuoin,IL,62832
"Cottonwood Financial Illinois, LLC",D/b/a The Cash Store,119 West Park Street,,Taylorville,IL,62568
"Cottonwood Financial Illinois, LLC",D/b/a The Cash Store,712 Chester Shopping Center,,Chester,IL,62233
"Cottonwood Financial Illinois, LLC",D/b/a The Cash Store,1125 South Route 31,Unit D,Crystal  Lake,IL,60014
"Cottonwood Financial Illinois, LLC",D/b/a The Cash Store,5259 Route 251,Suite 5,Peru,IL,61354
"Cottonwood Financial Illinois, LLC",D/b/a The Cash Store,1700 Parkway Plaza,Unit 2,Normal,IL,61761
"Cottonwood Financial Illinois, LLC",D/b/a The Cash Store,629 Wesley Drive,,Wood River,IL,62095
"Cottonwood Financial Illinois, LLC",D/b/a The Cash Store,4224 West Elm Street,,McHenry,IL,60050
"Cottonwood Financial Illinois, LLC",D/b/a The Cash Store,"1600 John Deer Road, Suite 100",,Silvis,IL,61282
"Cottonwood Financial Illinois, LLC",D/b/a The Cash Store,"1302 East Main Street, Unit D",,Robinson,IL,62454
"CQC, Inc.",D/b/a Carbondale Quick Cash,820 East Walnut,,Carbondale,IL,62901
creditbox.com LLC,,"880 Lee Street, Suite 300",,Des Plaines,IL,60016
"Devon Financial Services, Inc.",,4033 Oakton Street,,Skokie,IL,60076
"Devon Financial Services, Inc.",,2754 West 63rd Street,,Chicago,IL,60629
"Devon Financial Services, Inc.",,22 East Adams Street,,Chicago,IL,60603
"Devon Financial Services, Inc.",,8256-B South Cottage Grove Avenue,,Chicago,IL,60619
"Devon Financial Services, Inc.",,8832 South Cicero Avenue,,Oak Lawn,IL,60453
"Devon Financial Services, Inc.",,9455 South Ashland Avenue,,Chicago,IL,60620
"Devon Financial Services, Inc.",,6414 North Western Avenue,,Chicago,IL,60645
"Devon Financial Services, Inc.",,1702 West Madison,,Maywood,IL,60153
"Devon Financial Services, Inc.",,3222 West 87th Street,,Chicago,IL,60652
Easy Money Express Co,,1115 North Carbon Street,,Marion,IL,62959
"eMoneyUSA Holdings, LLC",D/b/a emoneyusa.com,"2310 West 75th Street, Suite 101",,Prairie Village,KS,66208
"EZ ONLINE Illinois, LLC",D/b/a ezmoneycenter.com and ezmoney.com,1901 Capital Parkway,,Austin,TX,78746
"Family Title Loans, Inc.",,3118 North University Street,,Peoria,IL,61604
"Fast Cash Advance, Inc.",,10311 West Roosevelt Road,,Westchester,IL,60154
"Fast Cash Advance, Inc.",,2011 West 75th Street,,Woodridge,IL,60517
Fiat Financial Money Center,,3641 North Main Street,,Rockford,IL,61103
Fiat Financial Money Center LLC,,109 East Lake Street,,Bartlett,IL,60103
Fiat Financial Money Center LLC,,174 North LaFox Street,,South Elgin,IL,60177
Fiat Financial Money Center LLC,,239 West Main Street,,Carpentersville,IL,60110
Flurish Inc.,D/b/a LendUp,"47 Maiden Lane, 3rd Floor",,San Francisco,CA,94108
"Forest Park Loan Company, Inc.",D/b/a/ The Money Company,7204 West Madison Street,,Forest Park,IL,60130
"Genesis Financial &amp; Payment Systems Illinois, LLC",,3175 Commercial Avenue,Suite 201,Northbrook,IL,60062
"Genesis Financial &amp; Payment Systems Illinois, LLC",,7100 South Jeffery Boulevard,Suite B,Chicago,IL,60649
"Great Lakes Specialty Finance, Inc.",D/b/a Check 'N Go,214 Keul Road,,Dixon,IL,61021
"Great Lakes Specialty Finance, Inc.",D/b/a Check 'N Go,100 Commercial Drive,,Fairfield,OH,45014
"Great Lakes Specialty Finance, Inc.",D/b/a Check 'N Go,16120 South State Street,,South Holland,IL,60473
"Great Lakes Specialty Finance, Inc.",D/b/a Check 'N Go,8305 Golf Road,,Niles,IL,60714
"Great Lakes Specialty Finance, Inc.",D/b/a Check 'N Go,160 North Mulford,,Rockford,IL,61107
"Great Lakes Specialty Finance, Inc.",D/b/a Check 'N Go,7101 West North Avenue,,Oak Park,IL,60302
"Great Lakes Specialty Finance, Inc.",D/b/a Check 'N Go,1027 South Roselle Road,,Schaumburg,IL,60193
"Great Lakes Specialty Finance, Inc.",D/b/a Check 'N Go,524 East Rollins Road,,Round Lake Beach,IL,60073
"Great Lakes Specialty Finance, Inc.",D/b/a Check 'N Go,511 East Norris,,Ottawa,IL,61350
"Great Lakes Specialty Finance, Inc.",D/b/a Check 'N Go,"1407 West Highway 50, Suite 102",,O'Fallon,IL,62269
"Great Lakes Specialty Finance, Inc.",D/b/a Check 'N Go,3127 Broadway Street,,Quincy,IL,62301
"Great Lakes Specialty Finance, Inc.",D/b/a Check 'N Go,6637 West Roosevelt Road,,Berwyn,IL,60402
"Great Lakes Specialty Finance, Inc.",D/b/a Check 'N Go,"2307 West Lawrence Avenue, Unit A",,Chicago,IL,60625
"Great Lakes Specialty Finance, Inc.",D/b/a Check 'N Go,5638 West Fullerton Avenue,,Chicago,IL,60639
"Great Lakes Specialty Finance, Inc.",D/b/a Check 'N Go,8535-B South Harlem Avenue,,Burbank,IL,60459
"Great Lakes Specialty Finance, Inc.",D/b/a Check 'N Go,2010 River Oaks Drive,,Calumet City,IL,60409
"Great Lakes Specialty Finance, Inc.",D/b/a Check 'N Go,"601 North Commercial, Suite 108",,Harrisburg,IL,62946
"Great Lakes Specialty Finance, Inc.",D/b/a Check 'N Go,639 West 14th Street,,Chicago Heights,IL,60411
"Great Lakes Specialty Finance, Inc.",D/b/a Check 'N Go,3125 South Ashland Avenue,Suite 206,Chicago,IL,60608
"Great Lakes Specialty Finance, Inc.",D/b/a Check 'N Go,4634 North Harlem Avenue,,Harwood Heights,IL,60706
"Great Lakes Specialty Finance, Inc.",D/b/a Check 'N Go,64 Carlyle Plaza,,Belleville,IL,62220
"Great Lakes Specialty Finance, Inc.",D/b/a Check 'N Go,128 South State Street,,Belvedere,IL,61008
"Great Lakes Specialty Finance, Inc.",D/b/a Check 'N Go,1331 East Pershing Road,,Decatur,IL,62526
"Great Lakes Specialty Finance, Inc.",D/b/a Check 'N Go,"6500 Northwest Highway, Unit J",,Crystal Lake,IL,60014
"Great Lakes Specialty Finance, Inc.",D/b/a Check 'N Go,2547 West Golf Road,,Hoffman Estates,IL,60194
"Great Lakes Specialty Finance, Inc.",D/b/a Check 'N Go,2116 West Jefferson Street,,Joliet,IL,60435
"Great Lakes Specialty Finance, Inc.",D/b/a Check 'N Go,2003 West 79th Street,,Chicago,IL,60620
"Great Lakes Specialty Finance, Inc.",D/b/a Check 'N Go,3329 West North Avenue,,Chicago,IL,60647
"Great Lakes Specialty Finance, Inc.",D/b/a Check 'N Go,8357 South Cottage Grove Avenue,,Chicago,IL,60619
"Great Lakes Specialty Finance, Inc.",D/b/a Check 'N Go,238 East 103rd Street,,Chicago,IL,60628
"Great Lakes Specialty Finance, Inc.",D/b/a Check 'N Go,217 East Roosevelt Road,,Lombard,IL,60148
"Great Lakes Specialty Finance, Inc.",D/b/a Check 'N Go,1401 West Market Street,,Bloomington,IL,61701
"Great Lakes Specialty Finance, Inc.",D/b/a Check 'N Go,"3219 West 115th Street, Suite 5A",,Merrionette Park,IL,60803
"Great Lakes Specialty Finance, Inc.",D/b/a Check 'N Go,4103 44th Avenue,,Moline,IL,61265
"Great Lakes Specialty Finance, Inc.",D/b/a Check 'N Go,"1545 North State, Route 50",,Bourbannais,IL,60914
"Great Lakes Specialty Finance, Inc.",D/b/a Check 'N Go,2222 Bloomingdale Road,,Glendale Heights,IL,60139
"Great Lakes Specialty Finance, Inc.",D/b/a Check 'N Go,"9031 North Allen Road, Suite 2",,Peoria,IL,61615
"Great Lakes Specialty Finance, Inc.",D/b/a Check 'N Go,192 Town Center Road,,Matteson,IL,60443
"Great Lakes Specialty Finance, Inc.",D/b/a Check 'N Go,1700 Sangamon Avenue,,Springfield,IL,62702
"Great Lakes Specialty Finance, Inc.",D/b/a Check 'N Go,"800 North Kedzie, Unit 225",,Chicago,IL,60651
"Great Lakes Specialty Finance, Inc.",D/b/a Check 'N Go,"5160 South Pulaski Avenue, Suite 111",,Chicago,IL,60632
"Great Lakes Specialty Finance, Inc.",D/b/a Check 'N Go,1706 West Bradley,,Champaign,IL,61821
"Great Lakes Specialty Finance, Inc.",D/b/a Check 'N Go,"6311 South Western Avenue, Suite B",,Chicago,IL,60636
"Great Lakes Specialty Finance, Inc.",D/b/a Check 'N Go,2317A South Cicero Avenue,,Cicero,IL,60804
"Great Lakes Specialty Finance, Inc.",D/b/a Check 'N Go,3435 Dempster Street,,Skokie,IL,60076
"Great Lakes Specialty Finance, Inc.",D/b/a Check 'N Go,13217 South Cicero Avenue,,Crestwood,IL,60445
"Great Lakes Specialty Finance, Inc.",D/b/a Check 'N Go,18226 South Kedzie,,Hazel Crest,IL,60429
"Great Lakes Specialty Finance, Inc.",D/b/a Check 'N Go,1276A North Lake Street,,Aurora,IL,60506
"Great Lakes Specialty Finance, Inc.",D/b/a Check 'N Go,"22 East West Newell Road, Suite A",,Danville,IL,61834
"Great Lakes Specialty Finance, Inc.",D/b/a Check 'N Go,1815B Philo Road,,Urbana,IL,61802
"Great Lakes Specialty Finance, Inc.",D/b/a Check 'N Go,"1047 South York Road, Unit C",,Bensenville,IL,60106
"Great Lakes Specialty Finance, Inc.",D/b/a Check 'N Go,4422 E. New York Street,,Aurora,IL,60504
"Great Lakes Specialty Finance, Inc.",D/b/a Check 'N Go,1909 North Mannheim Road,,Melrose Park,IL,60160
"Great Lakes Specialty Finance, Inc.",D/b/a Check 'N Go,"18300 South Halsted, Suite D",,Glenwood,IL,60425
"Harrisburg Quick Cash, Inc.",,114 South Commercial Street,,Harrisburg,IL,62946
"Highland Quick Cash, Inc.",,12589 State Route 143,,Highland,IL,62249
"Illinois Title Loans, Inc.",,3701 Grand Avenue,Suite J,Gurnee,IL,60031
"Illinois Title Loans, Inc.",,"Rural Route 6, Box 21",,Lomax,IL,61454
"Illinois Title Loans, Inc.",,1800 Broadway,,Quincy,IL,62301
"Illinois Title Loans, Inc.",,929 East Main Street,,Danville,IL,61832
"Illinois Title Loans, Inc.",,3113 Broadway,,Mt. Vernon,IL,62864
"Illinois Title Loans, Inc.",,11915-23 South Pulaski,,Alsip,IL,60803
"Illinois Title Loans, Inc.",,1350 North Hobbie Avenue,,Kankakee,IL,60901
"Illinois Title Loans, Inc.",,1605 North Knoxville Avenue,,Peoria,IL,61603
"Illinois Title Loans, Inc.",,15940 South Kedzie,,Markham,IL,60426
"Illinois Title Loans, Inc.",,422 North Illinois Street,,Belleville,IL,62220
"Illinois Title Loans, Inc.",,801 East Sibley Boulevard,,Dolton,IL,60419
"Illinois Title Loans, Inc.",,3410 Nameoki Road,,Granite City,IL,62040
"Illinois Title Loans, Inc.",,4513 Avenue of the Cities,,Moline,IL,61265
"Illinois Title Loans, Inc.",,205 East St. Charles Road,,Villa Park,IL,60181
"Illinois Title Loans, Inc.",,100 West Madison Avenue,,Maywood,IL,60153
"Illinois Title Loans, Inc.",,473 Torrence Avenue,,Calumet City,IL,60409
"Illinois Title Loans, Inc.",,1282 North Henderson Street,,Galesburg,IL,61401
"Illinois Title Loans, Inc.",,605 Vandalia Street,,Collinsville,IL,62234
"Illinois Title Loans, Inc.",,822 West Northwest Highway,,Arlington Heights,IL,60004
"Illinois Title Loans, Inc.",,2925 11th Street,,Rock Island,IL,61201
"Illinois Title Loans, Inc.",,56 Villa Street,,Elgin,IL,60120
"Illinois Title Loans, Inc.",,1025 East Main Street,,Carbondale,IL,62901
"Illinois Title Loans, Inc.",,540 West St. Louis Avenue,,East Alton,IL,62024
"Illinois Title Loans, Inc.",,2950 South MacArthur Boulevard,,Springfield,IL,62704
"Illinois Title Loans, Inc.",,1315 South Main Street,,Normal,IL,61761
"Illinois Title Loans, Inc.",,4950 North Second Street,,Loves Park,IL,61111
"Illinois Title Loans, Inc.",,486 North 22nd Street,,Decatur,IL,62521
"Illinois Title Loans, Inc.",,1301 North Prospect Avenue,,Champaign,IL,61820
"Illinois Title Loans, Inc.",,231 East Sinsinawa Avenue,,East Dubuque,IL,61025
"Illinois Title Loans, Inc.",,410 North Dirksen Parkway,,Springfield,IL,62702
"Illinois Title Loans, Inc.",,17310 Torrence Avenue,,Lansing,IL,60438
"Illinois Title Loans, Inc.",,923 East State Street,,Rockford,IL,61104
"Illinois Title Loans, Inc.",,1640 DeKalb Avenue,,Sycamore,IL,60178
"Illinois Title Loans, Inc.",,227 South Lincolnway,,North Aurora,IL,60542
"Illinois Title Loans, Inc.",,10509 Lincoln Trail,,Fairview Heights,IL,62208
"Illinois Title Loans, Inc.",,1511 West Jefferson Street,,Joliet,IL,60435
"Illinois Title Loans, Inc.",,1645 Western Avenue,,Chicago Heights,IL,60411
"Illinois Title Loans, Inc.",,1720 Plainfield Road,,Crest Hill,IL,60435
"Illinois Title Loans, Inc.",,2217 South Cicero Avenue,,Cicero,IL,60804
"Illinois Title Loans, Inc.",,8238 South Cicero Avenue,,Burbank,IL,60459
"Illinois Title Loans, Inc.",,700 Front Street,,McHenry,IL,60050
"Illinois Title Loans, Inc.",,210 East Irving Park Road,,Wood Dale,IL,60191
"Intergrated Commerce of Illinois, LLC",D/b/a Flexibility,6950 West 56th Street,,Mission,KS,66202
"K3 Investments, LLC",D/b/a Virgin Cash,1610b East Court Street,,Kankakee,IL,60901
"Loan By Phone of Illinois, LLC","D/b/a Loan By Phone, D/b/a Check Into Ca",P.O. Box 550,"201 Keith Street, SW",Cleveland,TN,37311
Lou R. Messervy,D/b/a Mr. Lou's Loans,1604 South Grand Avenue East,,Springfield,IL,62703
"Marion Quick Cash, Inc.",,1017 West Main Street,,Marion,IL,62959
Metro Loan Store 001 LLC,,7612 West 95th Street,,Hickory Hills,IL,60457
Metro Loan Store 002 LLC,,9445 South Kedzie Avenue,,Evergreen Park,IL,60805
Metro Loan Store 003 LLC,,4315 South Ashland Avenue,,Chicago,IL,60609
Metro Loan Store 004 LLC,,5711 West 95th Street,,Oak Lawn,IL,60453
Metro Loan Store 005 LLC,,5849A South Pulaski Road,,Chicago,IL,60629
Metro Loan Store 007 LLC,,920 East Roosevelt Road,,Lombard,IL,60148
Metro Loan Store 008 LLC,,5520 North Lincoln Avenue,,Chicago,IL,60625
"MoneyKey - IL, Inc.",,"1000 North West Street, Suite 200",,Wilmington,DE,19801
"National Credit Adjusters, L.L.C.",,327 West 4th Avenue,,Hutchinson,KS,67501
"PayDay America, Inc.",D/b/a Dollars Today,898 Edwardsville Road,,Wood River,IL,62095
"PayDay America, Inc.",D/b/a Dollars Today,3317 Mississippi Avenue,,Cahokia,IL,62206
"PayDay America, Inc.",D/b/a Dollars Today,1166 West Morton Avenue,,Jacksonville,IL,62650
"PLS Financial Solutions of Illinois, Inc.",D/b/a Payday Loan Store of Illinois,3175 West 175th Street,Suite B,Hazel Crest,IL,60429
"PLS Financial Solutions of Illinois, Inc.",D/b/a Payday Loan Store of Illinois,2150 West Galena Boulevard,,Aurora,IL,60506
"PLS Financial Solutions of Illinois, Inc.",D/b/a Payday Loan Store of Illinois,1617 North Cicero Avenue,Suite B,Chicago,IL,60639
"PLS Financial Solutions of Illinois, Inc.",D/b/a Payday Loan Store of Illinois,2904 Ogden Avenue,,Aurora,IL,60504
"PLS Financial Solutions of Illinois, Inc.",D/b/a Payday Loan Store of Illinois,1427 West Obama Drive,,Calumet Park,IL,60827
"PLS Financial Solutions of Illinois, Inc.",D/b/a Payday Loan Store of Illinois,810 Front Street,Suite D,McHenry,IL,60050
"PLS Financial Solutions of Illinois, Inc.",D/b/a Payday Loan Store of Illinois,575 North McLean Boulevard,,Elgin,IL,60123
"PLS Financial Solutions of Illinois, Inc.",D/b/a Payday Loan Store of Illinois,7300 North Barrington Road,,Hanover Park,IL,60103
"PLS Financial Solutions of Illinois, Inc.",D/b/a Payday Loan Store of Illinois,947 East Sibley Boulevard,,Dolton,IL,60419
"PLS Financial Solutions of Illinois, Inc.",D/b/a Payday Loan Store of Illinois,95 East Roosevelt Road,,Lombard,IL,60148
"PLS Financial Solutions of Illinois, Inc.",D/b/a Payday Loan Store of Illinois,17 W. 625 Roosevelt Road,,Oak Brook Terrace,IL,60181
"PLS Financial Solutions of Illinois, Inc.",D/b/a Payday Loan Store of Illinois,1428 North Lewis,,Waukegan,IL,60085
"PLS Financial Solutions of Illinois, Inc.",D/b/a Payday Loan Store of Illinois,154 North Wabash Avenue,,Chicago,IL,60601
"PLS Financial Solutions of Illinois, Inc.",D/b/a Payday Loan Store of Illinois,129 East South Street,,Plano,IL,60545
"PLS Financial Solutions of Illinois, Inc.",D/b/a Payday Loan Store of Illinois,1900 West Roosevelt Road,,Broadview,IL,60153
"PLS Financial Solutions of Illinois, Inc.",D/b/a Payday Loan Store of Illinois,4031B West 183rd Street,,Country Club Hills,IL,60478
"PLS Financial Solutions of Illinois, Inc.",D/b/a Payday Loan Store of Illinois,628 West 14th Street,,Chicago Heights,IL,60411
"PLS Financial Solutions of Illinois, Inc.",D/b/a Payday Loan Store of Illinois,3908 South Harlem Avenue,,Lyons,IL,60534
"PLS Financial Solutions of Illinois, Inc.",D/b/a Payday Loan Store of Illinois,801 1/2 North Pulaski Road,,Chicago,IL,60651
"PLS Financial Solutions of Illinois, Inc.",D/b/a Payday Loan Store of Illinois,16909 Torrence Avenue,,Lansing,IL,60438
"PLS Financial Solutions of Illinois, Inc.",D/b/a Payday Loan Store of Illinois,954B East New York Street,,Aurora,IL,60505
"PLS Financial Solutions of Illinois, Inc.",D/b/a Payday Loan Store of Illinois,1261 North Lake Street,Suite K,Aurora,IL,60506
"PLS Financial Solutions of Illinois, Inc.",D/b/a Payday Loan Store of Illinois,902A North Lake Street,,Aurora,IL,60506
"PLS Financial Solutions of Illinois, Inc.",D/b/a Payday Loan Store of Illinois,1215 East 87th Street,,Chicago,IL,60619
"PLS Financial Solutions of Illinois, Inc.",D/b/a Payday Loan Store of Illinois,1828 West Dempster,,Evanston,IL,60202
"PLS Financial Solutions of Illinois, Inc.",D/b/a Payday Loan Store of Illinois,9920 South Western Avenue,,Chicago,IL,60643
"PLS Financial Solutions of Illinois, Inc.",D/b/a Payday Loan Store of Illinois,526 Mannheim Road,,Bellwood,IL,60104
"PLS Financial Solutions of Illinois, Inc.",D/b/a Payday Loan Store of Illinois,4838 South Cicero Avenue,,Chicago,IL,60638
"PLS Financial Solutions of Illinois, Inc.",D/b/a Payday Loan Store of Illinois,2132 East 71st Street,,Chicago,IL,60649
"PLS Financial Solutions of Illinois, Inc.",D/b/a Payday Loan Store of Illinois,6322 West 95th Street,,Oak Lawn,IL,60453
"PLS Financial Solutions of Illinois, Inc.",D/b/a Payday Loan Store of Illinois,1551 Plainfield Road,Suite A,Joliet,IL,60435
"PLS Financial Solutions of Illinois, Inc.",D/b/a Payday Loan Store of Illinois,177 West Lake Street,,Chicago,IL,60601
"PLS Financial Solutions of Illinois, Inc.",D/b/a Payday Loan Store of Illinois,337 South Franklin,,Chicago,IL,60606
"PLS Financial Solutions of Illinois, Inc.",D/b/a Payday Loan Store of Illinois,268 South State Street,,Elgin,IL,60123
"PLS Financial Solutions of Illinois, Inc.",D/b/a Payday Loan Store of Illinois,7001-A North Clark Street,,Chicago,IL,60626
"PLS Financial Solutions of Illinois, Inc.",D/b/a Payday Loan Store of Illinois,8026 South Cicero Avenue,,Burbank,IL,60459
"PLS Financial Solutions of Illinois, Inc.",D/b/a Payday Loan Store of Illinois,1527 West North Avenue,,Melrose Park,IL,60160
"PLS Financial Solutions of Illinois, Inc.",D/b/a Payday Loan Store of Illinois,211C South Larkin Avenue,,Joliet,IL,60436
"PLS Financial Solutions of Illinois, Inc.",D/b/a Payday Loan Store of Illinois,346/348 Bolingbrook Commons,,Bolingbrook,IL,60440
"PLS Financial Solutions of Illinois, Inc.",D/b/a Payday Loan Store of Illinois,1006 East 162nd Street,,South Holland,IL,60473
"PLS Financial Solutions of Illinois, Inc.",D/b/a Payday Loan Store of Illinois,147 West Roosevelt Road,,West Chicago,IL,60185
"PLS Financial Solutions of Illinois, Inc.",D/b/a Payday Loan Store of Illinois,1657 Sibley Boulevard,,Calumet City,IL,60409
"PLS Financial Solutions of Illinois, Inc.",D/b/a Payday Loan Store of Illinois,2510 Grand Avenue,,Waukegan,IL,60085
"PLS Financial Solutions of Illinois, Inc.",D/b/a Payday Loan Store of Illinois,10354 West Roosevelt Road,,Westchester,IL,60154
"PLS Financial Solutions of Illinois, Inc.",D/b/a Payday Loan Store of Illinois,107 West Sibley Boulevard,,South Holland,IL,60473
"PNR, Inc.",D/b/a Checks For Cash,3704 North Main Street,,Rockford,IL,61103
"QC Financial Services, Inc.",D/b/a National Quik Cash,3168 South Ashland Avenue,,Chicago,IL,60608
"QC Financial Services, Inc.",D/b/a National Quik Cash,8502 South Cicero Avenue,,Burbank,IL,60459
"QC Financial Services, Inc.",D/B/A National Quik Cash,1420 West Jefferson Street,,Joliet,IL,60435
"QC Financial Services, Inc.",D/B/A First Payday Loans,11 Bellevue Park Plaza,,Belleville,IL,62226
"QC Financial Services, Inc.",D/b/a First Payday Loans,515 Lincoln Highway,Suite 7,Fairview Heights,IL,62208
"QC Financial Services, Inc.",D/b/a First Payday Loans,1238 Camp Jackson Road,,Cahokia,IL,62206
"QC Financial Services, Inc.",D/b/a First Payday Loans,1415 North Main,,Bloomington,IL,61701
"QC Financial Services, Inc.",D/b/a First Payday Loans,501 North Vermilion,Unit B,Danville,IL,61832
"QC Financial Services, Inc.",D/b/a First Payday Loans,3226 North University Street,,Peoria,IL,61604
"QC Financial Services, Inc.",D/b/a National Quik Cash,4820 West Irving Park Road,,Chicago,IL,60641
"QC Financial Services, Inc.",D/b/a National Quik Cash,6508 Cermak Road,,Berwyn,IL,60402
"QC Financial Services, Inc.",D/b/a First Payday Loans,2518 College Avenue,,Alton,IL,62002
"QC Financial Services, Inc.",D/b/a First Payday Loans,2950 North Main Street,,Decatur,IL,62526
"QC Financial Services, Inc.",D/b/a First Payday Loans,121 North Grand Avenue East,,Springfield,IL,62702
"QC Financial Services, Inc.",D/b/a National Quik Cash,8202 South Stony Island Avenue,,Chicago,IL,60617
"QC Financial Services, Inc.",D/b/a National Quik Cash,1451 Sibley Boulevard,,Calumet City,IL,60409
"QC Financial Services, Inc.",D/b/a First Payday Loans,2126 South MacArthur Boulevard,,Springfield,IL,62704
"QC Financial Services, Inc.",D/b/a First Choice Loans,407 West Lincoln Highway,,Chicago Heights,IL,60411
"QC Financial Services, Inc.",D/b/a First Choice Loans,1401 North Prospect Avenue,Unit 1 &amp; 2,Champaign,IL,61820
"Quick Cash of Illinois, Inc.",,632 North Market Street,,Waterloo,IL,62298
"Quick Cash of Illinois, Inc.",,1608 South State Street,,Jerseyville,IL,62052
Short Term Loans LLC,,1400 East Touhy Avenue,Suite 108,Des Plaines,IL,60018
Short Term Loans LLC.,,1977 Douglas Avenue,,Montgomery,IL,60538
Short Term Loans LLC.,,1227 Glen Ellyn Road,,Glendale Heights,IL,60139
Short Term Loans LLC.,,"1698 South Elmhurst Road, Unit 102",,Mt. Prospect,IL,60056
Short Term Loans LLC.,,661 Roosevelt Road,,Glen Ellyn,IL,60137
Short Term Loans LLC.,,1016 South Barrington Road,,Streamwood,IL,60107
Short Term Loans LLC.,,376 South Route 59,Suite 108,Naperville,IL,60540
Short Term Loans LLC.,,1202 West 75th Street,Unit H,Downers Grove,IL,60516
Short Term Loans LLC.,,1039 North Roselle Road,,Hoffman Estates,IL,60169
Short Term Loans LLC.,,158 North Randall Road,,Lake In The Hills,IL,60102
"Speedy Cash Illinois, Inc.",,1931 North Mannheim Road,,Melrose Park,IL,60160
"Speedy Cash Illinois, Inc.",,1552 West 119th Street,,Chicago,IL,60643
"Speedy Cash Illinois, Inc.",,8701 South Cottage Grove Avenue,,Chicago,IL,60619
"Speedy Cash Illinois, Inc.",,11100 South Cicero Avenue,,Alsip,IL,60803
"Speedy Cash Illinois, Inc.",,848 East Sibley Boulevard,,Dolton,IL,60419
"Speedy Cash Illinois, Inc.",,1218 North Lake Street,,Aurora,IL,60506
"Speedy Cash Illinois, Inc.",,4800 West Addison Street,,Chicago,IL,60641
"Speedy Cash Illinois, Inc.",,4648 South Cicero Avenue,,Chicago,IL,60638
"Speedy Cash Illinois, Inc.",,3611 North Ridge Road,,Wichita,KS,67205
"Sun Cash of Wisconsin, LLC",,598 South Torrence Avenue,,Calumet City,IL,60409
"Sun Cash of Wisconsin, LLC",,5800 West North Avenue,,Chicago,IL,60639
"Swansea Quick Cash, Inc.",,2708 North Illinois Street,,Swansea,IL,62226
"The MoneyPlace of Effingham, Inc.",,209 North Henrietta Street,,Effingham,IL,62401
"The MoneyPlace of Mattoon, Inc.",,620 Lakeland Boulevard,Suite D,Mattoon,IL,61938
"Title Cash of Illinois, Inc.",D/b/a Title Ca$h,305 East Fayette Avenue,,Effingham,IL,62401
"Title Cash of Illinois, Inc.",D/b/a Title Ca$h,3 North Commercial Street,,Harrisburg,IL,62946
"Title Cash of Illinois, Inc.",D/b/a Title Ca$h,1112 South Park Avenue,,Herrin,IL,62948
"Title Cash of Illinois, Inc.",D/b/a Title Ca$h,3146 Avenue of the Cities,,Moline,IL,61265
"Title Cash of Illinois, Inc.",D/b/a Title Ca$h,940 West Morton Road,,Jacksonville,IL,62650
"Title Cash of Illinois, Inc.",D/b/a Title Ca$h,1510 East Jackson Street,,Macomb,IL,61455
"Title Cash of Illinois, Inc.",D/b/a Title Ca$h,4115 B Broadway Street,,Mt. Vernon,IL,62864
"Title Cash of Illinois, Inc.",D/b/a Title Ca$h,1905 North Knoxville Avenue,,Peoria,IL,61603
"Title Cash of Illinois, Inc.",D/b/a Title Ca$h,931 First Avenue,,Rock Falls,IL,61071
"Title Cash of Illinois, Inc.",D/b/a Title Ca$h,916 South Grand Avenue West,,Springfield,IL,62704
"Title Cash of Illinois, Inc.",D/b/a Title Ca$h,2313 East Lincoln Way,,Sterling,IL,61081
"Title Cash of Illinois, Inc.",D/b/a Title Ca$h,1000 Leigh Avenue,Suite A,Anna,IL,62906
"Title Cash of Illinois, Inc.",D/b/a Title Ca$h,3108 North Sterling Avenue,,Peoria,IL,61614
"Title Cash of Illinois, Inc.",D/b/a Ca$h-2-Go,217 East 9th Street,,Mt. Carmel,IL,62863
"Title Cash of Illinois, Inc.",D/b/a Cash Loan Store,5919 North 2nd Street,,Loves Park,IL,61111
"Title Cash of Illinois, Inc.",D/b/a Title Ca$h,2010 West Springfield Avenue,,Champaign,IL,61821
"Title Cash of Illinois, Inc.",D/b/a Title Ca$h,806 South Main Street,,Bloomington,IL,61701
"Title Cash of Illinois, Inc.",D/b/a Title Ca$h,"120 North 4th Street, Suite A",,Chillicothe,IL,61523
"Title Cash of Illinois, Inc.",D/b/a Title Ca$h,1300 East Washington Street,,East Peoria,IL,61611
"Title Cash of Illinois, Inc.",D/b/a Ca$h-2-Go,607 Keokuk Street,,Lincoln,IL,62656
"Title Lenders, Inc.",D/b/a USA Payday Loans,333 South McLean,,Elgin,IL,60123
"Title Lenders, Inc.",D/b/a USA Payday Loans,8127 South Cicero Avenue,,Chicago,IL,60652
"Title Lenders, Inc.",D/b/a USA Payday Loans,7450 South Barrington Road,,Hanover Park,IL,60133
"Title Lenders, Inc.",D/b/a USA Payday Loans,1048 North Farnsworth Avenue,,Aurora,IL,60505
"Title Lenders, Inc.",D/b/a USA Loans,292 South Larkin Avenue,,Joliet,IL,60436
"Title Lenders, Inc.",D/b/a USA Payday Loans,9572 North Potter Road,,Des Plaines,IL,60016
"Title Lenders, Inc.",D/b/a USA Payday Loans,10 West North Avenue,,Northlake,IL,60164
"Title Lenders, Inc.",D/b/a USA Payday Loans,110 West Veterans Parkway,,Yorkville,IL,60560
"Title Lenders, Inc.",D/b/a USA Payday Loans,15943 South Harlem Avenue,,Tinley Park,IL,60477
"Title Lenders, Inc.",D/b/a USA Payday Loans,4124 North Milwaukee Avenue,,Chicago,IL,60641
"Title Lenders, Inc.",D/b/a USA Loans,13543 South Cicero Avenue,,Crestwood,IL,60445
"Title Lenders, Inc.",D/b/a USA Payday Loans,3243 North Harlem Avenue,,Chicago,IL,60634
"Title Lenders, Inc.",D/b/a USA Payday Loans,428 East 162nd Street,,South Holland,IL,60473
"Title Lenders, Inc.",D/b/a USA Payday Loans,1541 North Lewis Avenue,,Waukegan,IL,60085
"Title Lenders, Inc.",D/b/a USA Payday Loans,1845 Broadway,,Quincy,IL,62301
"Title Lenders, Inc.",D/b/a USA Loans,5005 Northwest Highway,,Crystal Lake,IL,60014
"Title Lenders, Inc.",D/b/a MO Payday Loans,317 East Homer Adams Parkway Suite B,,Alton,IL,62002
"Title Lenders, Inc.",D/b/a MO Payday Loans,3491 Nameoki Road,,Granite City,IL,62040
"Title Lenders, Inc.",D/b/a MO Payday Loans,815 Lincoln Highway,,Fairview Heights,IL,62208
"Tri-State Financial Services, Inc.",,15898 South LaGrange Road,,Orland Park,IL,60462
"Tri-State Financial Services, Inc.",,1187 North Farnsworth Avenue,,Aurora,IL,60505
"Tri-State Financial Services, Inc.",,601 West Ogden Avenue,,Downers Grove,IL,60515
"Tri-State Financial Services, Inc.",,1258 Burnham Avenue,,Calumet City,IL,60409
"Tri-State Financial Services, Inc.",,2150 North Avenue,,Melrose Park,IL,60160
"United Cash Express, Inc.",,3327 Avenue of the Cities,,Moline,IL,61265
"Universal Cash Express, Inc.",,713 South Eastwood Drive,,Woodstock,IL,60098
Uptown Cash LLC,,8641 South Cottage Grove Avenue,,Chicago,IL,60619
WinK Development LLC,D/b/a Cash Express of Robinson,1722 West Main Street,,Robinson,IL,62454
WinK Development LLC,D/b/a Cash Express of Marshall,1209 North Michigan Street,Suite B,Marshall,IL,62441
WinK Development LLC,D/b/a Cash Express of Flora,832 West North Avenue,,Flora,IL,62839
WinK Development LLC,D/b/a Cash Express of Olney,224 South West Street,,Olney,IL,62450
WinK Development LLC,D/b/a E-Z Cash of Fairfield,1103 West Delaware,,Fairfield,IL,62837
Zoom Loan LLC,D/b/a Zoompayday.com,1200 Brickell Avenue,Suite 860,Miami,FL,33131
